#aV2024  3 22  0  0  0.00000000     288 DD+AD WGS84 FIT  NGA
## 2306 432000.00000000   300.00000000 60391 0.0000000000000
+   32     1  2  3  4  5  6  7  8  9 10 11 12 13 14 15 16 17
+         18 19 20 21 22 23 24 25 26 27 28 29 30 31 32  0  0
+          0  0  0  0  0  0  0  0  0  0  0  0  0  0  0  0  0
+          0  0  0  0  0  0  0  0  0  0  0  0  0  0  0  0  0
+          0  0  0  0  0  0  0  0  0  0  0  0  0  0  0  0  0
++         2  2  2  2  2  2  2  2  2  2  2  2  2  2  2  2  2
++         2  2  2  2  2  2  2  2  2  2  2  2  2  2  2  0  0
++         0  0  0  0  0  0  0  0  0  0  0  0  0  0  0  0  0
++         0  0  0  0  0  0  0  0  0  0  0  0  0  0  0  0  0
++         0  0  0  0  0  0  0  0  0  0  0  0  0  0  0  0  0
%c cc cc ccc ccc cccc cccc cccc cccc ccccc ccccc ccccc ccccc
%c cc cc ccc ccc cccc cccc cccc cccc ccccc ccccc ccccc ccccc
%f  0.0000000  0.000000000  0.00000000000  0.000000000000000
%f  0.0000000  0.000000000  0.00000000000  0.000000000000000
%i    0    0    0    0      0      0      0      0         0
%i    0    0    0    0      0      0      0      0         0
/*      NGA, ST. LOUIS,MO.                                  
/*   EPHEMERIS COMPUTED FROM 2 DAYS OF DATA                 
/*   EPOCHA v9 SMOOTHER                                     
/*   G2296 IERS2010 SATIGS SATAPC                           
*  2024  3 22 12 35  0.00000000
P  1 -13925.677472 -11706.879766 -19823.398010    175.344306                    
V  1  24059.729448  -2920.719067 -15125.347761      0.021273                    
P  2  -3614.311773 -14400.117832 -21542.034844   -466.152606                    
V  2  27936.761347  -5635.607533   -638.708733      0.062584                    
P  3 -11346.639517 -23096.068248  -6982.630981    266.958354                    
V  3   6643.376297   5806.689127 -30522.322538      0.222319                    
P  4  -1098.628303 -21896.796636  14917.050548    320.909718                    
V  4   9954.270901 -16262.234136 -23291.850805      0.090181                    
P  5    717.414278  19753.621985  17521.303986   -166.322051                    
V  5 -15609.362489 -16429.369270  19062.914237     -0.014009                    
P  6 -25586.659344   5739.387712   4651.178003    356.857761                    
V  6  -5936.743851  -1132.529317 -31600.678920     -0.167788                    
P  7 -22353.547964  -7039.406032  13435.776970    -90.062261                    
V  7  15748.310408  -3862.422630  24653.031406     -0.086495                    
P  8   4520.886092 -25023.701689  -6954.995010     72.587753                    
V  8   6210.151388  -7027.752780  30185.489358      0.260780                    
P  9 -11579.693873 -11019.861000  21124.076749    133.367621                    
V  9  10716.738544 -24819.956648  -7099.865812      0.132769                    
P 10  18371.987869   3741.014623 -18734.023484     -1.832800                    
V 10  13585.892372  19875.897083  16793.979047     -0.025166                    
P 11 -18148.618751  11870.887517  15326.964736   -614.310417                    
V 11 -19510.863684   -552.513834 -22755.195918     -0.114193                    
P 12   8851.475811  23895.122195  -7889.624704   -489.528556                    
V 12  -7282.824757  -6744.751589 -29619.792088     -0.035476                    
P 13 -13483.401441  22736.464532   -459.982521    636.310483                    
V 13  -2471.762922  -1104.452391  32127.299749      0.032681                    
P 14 -19658.137875  -7370.171674 -16358.374835    356.973396                    
V 14 -10343.606036 -18141.653118  20375.343324      0.097085                    
P 15  -1205.578103  25564.084580  -7184.694157    140.318083                    
V 15  -5575.536105   7401.557348  29484.457369      0.040208                    
P 16   5949.440356 -16346.003873  19601.430484   -335.215025                    
V 16  14792.027386  21139.667720  13361.971950      0.089842                    
P 17 -16787.779492   2802.340964 -20012.449608    712.717821                    
V 17  10969.850992 -23904.320732 -12143.757655     -0.015754                    
P 18  22889.588686   6062.913763  12232.045142   -580.406092                    
V 18 -15161.228366   3350.820241  26557.106166     -0.073011                    
P 19 -18443.531581  11218.312967 -15406.939643    457.499586                    
V 19   7736.192879 -17863.508855 -22901.145315      0.053161                    
P 20  -9631.168558  12089.299074  21667.236391    383.006030                    
V 20 -20009.136025 -18699.892986   1390.932169     -0.014045                    
P 21   1728.298214 -15334.512440 -21018.214993    130.359368                    
V 21  27563.181693  -4735.752142   6576.989767     -0.015269                    
P 22 -16442.274343    390.295909 -20368.396617     12.085523                    
V 22 -13133.995631 -23501.172850  10230.251586     -0.058501                    
P 23  20031.310139  14441.973026 -10007.009814    182.904830                    
V 23   6376.661600  11094.120698  28520.904084      0.087691                    
P 24   1732.684338  15932.672519 -21574.676987   -449.735761                    
V 24 -26049.002306   5199.457793   2197.095550     -0.051179                    
P 25  16860.869578  20667.189905    988.183844    491.949689                    
V 25  -1303.415281   3095.805589 -31322.824734      0.009636                    
P 26  14668.638264  -6878.002621  20936.719291    176.461570                    
V 26  17434.705532  20626.885318  -5034.778184     -0.046575                    
P 27  12743.064866 -22591.265425   4231.173180    -13.592658                    
V 27    602.293932   6542.939822  31471.644955     -0.026943                    
P 28  26004.866022  -5118.829045   1670.188804   -173.832941                    
V 28   2534.573976   2432.063973 -31689.412743     -0.142139                    
P 29   8933.283944  13649.126955  20884.765258   -604.130374                    
V 29 -13063.559004  23221.388842  -9665.406602      0.010376                    
P 30 -26508.962418    591.762357   3330.814808   -416.217184                    
V 30   3641.678014  -3758.804095  30643.677206      0.053489                    
P 31  22182.026366  -9922.155077  10969.605031   -228.007910                    
V 31  14279.200885    998.877160 -27048.283264     -0.000306                    
P 32  17080.543451  -6414.378117 -19020.781447   -616.561458                    
V 32  -8147.113921  23325.264666 -15217.376158     -0.010635                    
EOF
